start=new Date('2023-06-16T00:00:00.000Z').valueOf();
sats=[{"OBJECT_ID":"2021-024BM","GP_ID":"233986110","PERIOD":"95.593","INCLINATION":"53.0542","MEAN_MOTION_DOT":"-0.00001000","CLASSIFICATION_TYPE":"U","ECCENTRICITY":"0.00013420","OBJECT_NAME":"STARLINK-2295","APOAPSIS":"548.175","CENTER_NAME":"EARTH","SITE":"AFETR","EPHEMERIS_TYPE":"0","TLE_LINE2":"2 48036  53.0542 134.0326 0001342  93.2328 266.8815 15.06389687124138","MEAN_MOTION":"15.06389687","RA_OF_ASC_NODE":"134.0326","OBJECT_TYPE":"PAYLOAD","BSTAR":"-0.00004823400000","SEMIMAJOR_AXIS":"6925.380","NORAD_CAT_ID":"48036","MEAN_MOTION_DDOT":"0.0000000000000","RCS_SIZE":"LARGE","COUNTRY_CODE":"US","MEAN_ELEMENT_THEORY":"SGP4","MEAN_ANOMALY":"266.8815","DECAY_DATE":null,"LAUNCH_DATE":"2021-03-24","EPOCH":"2023-06-15T04:40:13.550592","FILE":"3933820","REV_AT_EPOCH":"12413","PERIAPSIS":"546.316","ARG_OF_PERICENTER":"93.2328","ELEMENT_SET_NO":"999","REF_FRAME":"TEME","TIME_SYSTEM":"UTC","TLE_LINE1":"1 48036U 21024BM  23166.19460128 -.00001000  00000-0 -48234-4 0  9997"},{"SITE":"AFETR","CENTER_NAME":"EARTH","APOAPSIS":"547.861","RA_OF_ASC_NODE":"257.8057","MEAN_MOTION":"15.06427230","TLE_LINE2":"2 48092  53.0542 257.8057 0001055  73.5134 286.5971 15.06427230123017","EPHEMERIS_TYPE":"0","SEMIMAJOR_AXIS":"6925.265","BSTAR":"0.00127810000000","OBJECT_TYPE":"PAYLOAD","GP_ID":"233987118","OBJECT_ID":"2021-027A","INCLINATION":"53.0542","MEAN_MOTION_DOT":"0.00018821","PERIOD":"95.590","ECCENTRICITY":"0.00010550","OBJECT_NAME":"STARLINK-2048","CLASSIFICATION_TYPE":"U","PERIAPSIS":"546.399","REV_AT_EPOCH":"12301","ELEMENT_SET_NO":"999","ARG_OF_PERICENTER":"73.5134","REF_FRAME":"TEME","TLE_LINE1":"1 48092U 21027A   23166.53143968  .00018821  00000-0  12781-2 0  9993","TIME_SYSTEM":"UTC","RCS_SIZE":"LARGE","MEAN_MOTION_DDOT":"0.0000000000000","NORAD_CAT_ID":"48092","COUNTRY_CODE":"US","MEAN_ELEMENT_THEORY":"SGP4","MEAN_ANOMALY":"286.5971","EPOCH":"2023-06-15T12:45:16.388352","FILE":"3933820","DECAY_DATE":null,"LAUNCH_DATE":"2021-04-07"},{"OBJECT_NAME":"STARLINK-2404","ECCENTRICITY":"0.00009360","CLASSIFICATION_TYPE":"U","GP_ID":"234019827","OBJECT_ID":"2021-027B","MEAN_MOTION_DOT":"0.00021854","INCLINATION":"53.0540","PERIOD":"95.591","RA_OF_ASC_NODE":"321.9981","MEAN_MOTION":"15.06414927","TLE_LINE2":"2 48093  53.0540 321.9981 0000936  71.2291 288.8799 15.06414927122135","EPHEMERIS_TYPE":"0","SEMIMAJOR_AXIS":"6925.303","OBJECT_TYPE":"PAYLOAD","BSTAR":"0.00148090000000","SITE":"AFETR","APOAPSIS":"547.816","CENTER_NAME":"EARTH","MEAN_ANOMALY":"288.8799","MEAN_ELEMENT_THEORY":"SGP4","EPOCH":"2023-06-15T16:38:08.456352","FILE":"3934071","LAUNCH_DATE":"2021-04-07","DECAY_DATE":null,"MEAN_MOTION_DDOT":"0.0000000000000","RCS_SIZE":"LARGE","NORAD_CAT_ID":"48093","COUNTRY_CODE":"US","REF_FRAME":"TEME","TLE_LINE1":"1 48093U 21027B   23166.69315343  .00021854  00000-0  14809-2 0  9992","TIME_SYSTEM":"UTC","PERIAPSIS":"546.520","REV_AT_EPOCH":"12213","ELEMENT_SET_NO":"999","ARG_OF_PERICENTER":"71.2291"},{"ELEMENT_SET_NO":"999","ARG_OF_PERICENTER":"105.0160","PERIAPSIS":"546.606","REV_AT_EPOCH":"12200","TLE_LINE1":"1 48094U 21027C   23166.71063152  .00019116  00000-0  12980-2 0  9990","TIME_SYSTEM":"UTC","REF_FRAME":"TEME","COUNTRY_CODE":"US","MEAN_MOTION_DDOT":"0.0000000000000","RCS_SIZE":"LARGE","NORAD_CAT_ID":"48094","FILE":"3934071","EPOCH":"2023-06-15T17:03:18.563328","LAUNCH_DATE":"2021-04-07","DECAY_DATE":null,"MEAN_ANOMALY":"255.0916","MEAN_ELEMENT_THEORY":"SGP4","SITE":"AFETR","APOAPSIS":"547.697","CENTER_NAME":"EARTH","SEMIMAJOR_AXIS":"6925.286","BSTAR":"0.00129800000000","OBJECT_TYPE":"PAYLOAD","RA_OF_ASC_NODE":"331.7178","MEAN_MOTION":"15.06420292","TLE_LINE2":"2 48094  53.0541 331.7178 0000788 105.0160 255.0916 15.06420292122005","EPHEMERIS_TYPE":"0","MEAN_MOTION_DOT":"0.00019116","INCLINATION":"53.0541","PERIOD":"95.591","GP_ID":"234019088","OBJECT_ID":"2021-027C","OBJECT_NAME":"STARLINK-2412","ECCENTRICITY":"0.00007880","CLASSIFICATION_TYPE":"U"},{"MEAN_ANOMALY":"265.7098","MEAN_ELEMENT_THEORY":"SGP4","DECAY_DATE":null,"LAUNCH_DATE":"2021-04-07","FILE":"3933889","EPOCH":"2023-06-15T17:13:55.540416","NORAD_CAT_ID":"48095","RCS_SIZE":"MEDIUM","MEAN_MOTION_DDOT":"0.0000000000000","COUNTRY_CODE":"US","REF_FRAME":"TEME","TIME_SYSTEM":"UTC","TLE_LINE1":"1 48095U 21027D   23166.71800394  .00016713  00000-0  11378-2 0  9998","PERIAPSIS":"546.412","REV_AT_EPOCH":"12160","ELEMENT_SET_NO":"999","ARG_OF_PERICENTER":"94.4015","CLASSIFICATION_TYPE":"U","OBJECT_NAME":"STARLINK-2414","ECCENTRICITY":"0.00010900","OBJECT_ID":"2021-027D","GP_ID":"233993876","PERIOD":"95.591","INCLINATION":"53.0540","MEAN_MOTION_DOT":"0.00016713","EPHEMERIS_TYPE":"0","TLE_LINE2":"2 48095  53.0540 331.6934 0001090  94.4015 265.7098 15.06415231121602","RA_OF_ASC_NODE":"331.6934","MEAN_MOTION":"15.06415231","OBJECT_TYPE":"PAYLOAD","BSTAR":"0.00113780000000","SEMIMAJOR_AXIS":"6925.302","CENTER_NAME":"EARTH","APOAPSIS":"547.922","SITE":"AFETR"},{"COUNTRY_CODE":"US","MEAN_MOTION_DDOT":"0.0000000000000","RCS_SIZE":"LARGE","NORAD_CAT_ID":"48096","FILE":"3934071","EPOCH":"2023-06-15T18:12:18.952416","LAUNCH_DATE":"2021-04-07","DECAY_DATE":null,"MEAN_ELEMENT_THEORY":"SGP4","MEAN_ANOMALY":"259.1587","ELEMENT_SET_NO":"999","ARG_OF_PERICENTER":"100.9504","PERIAPSIS":"546.536","REV_AT_EPOCH":"12200","TLE_LINE1":"1 48096U 21027E   23166.75855269  .00019890  00000-0  13498-2 0  9998","TIME_SYSTEM":"UTC","REF_FRAME":"TEME","MEAN_MOTION_DOT":"0.00019890","INCLINATION":"53.0545","PERIOD":"95.591","GP_ID":"234020087","OBJECT_ID":"2021-027E","ECCENTRICITY":"0.00009070","OBJECT_NAME":"STARLINK-2417","CLASSIFICATION_TYPE":"U","SITE":"AFETR","CENTER_NAME":"EARTH","APOAPSIS":"547.792","SEMIMAJOR_AXIS":"6925.299","BSTAR":"0.00134980000000","OBJECT_TYPE":"PAYLOAD","RA_OF_ASC_NODE":"331.5074","MEAN_MOTION":"15.06416093","TLE_LINE2":"2 48096  53.0545 331.5074 0000907 100.9504 259.1587 15.06416093122006","EPHEMERIS_TYPE":"0"},{"CLASSIFICATION_TYPE":"U","ECCENTRICITY":"0.00013250","OBJECT_NAME":"STARLINK-2418","PERIOD":"95.591","INCLINATION":"53.0546","MEAN_MOTION_DOT":"0.00023020","OBJECT_ID":"2021-027F","GP_ID":"234020327","BSTAR":"0.00155830000000","OBJECT_TYPE":"PAYLOAD","SEMIMAJOR_AXIS":"6925.279","EPHEMERIS_TYPE":"0","TLE_LINE2":"2 48097  53.0546 311.8925 0001325  65.2404 294.8723 15.06422836122270","MEAN_MOTION":"15.06422836","RA_OF_ASC_NODE":"311.8925","CENTER_NAME":"EARTH","APOAPSIS":"548.061","SITE":"AFETR","DECAY_DATE":null,"LAUNCH_DATE":"2021-04-07","EPOCH":"2023-06-15T16:07:34.982688","FILE":"3934071","MEAN_ELEMENT_THEORY":"SGP4","MEAN_ANOMALY":"294.8723","COUNTRY_CODE":"US","NORAD_CAT_ID":"48097","MEAN_MOTION_DDOT":"0.0000000000000","RCS_SIZE":"LARGE","TIME_SYSTEM":"UTC","TLE_LINE1":"1 48097U 21027F   23166.67193267  .00023020  00000-0  15583-2 0  9990","REF_FRAME":"TEME","ARG_OF_PERICENTER":"65.2404","ELEMENT_SET_NO":"999","REV_AT_EPOCH":"12227","PERIAPSIS":"546.226"},{"MEAN_ANOMALY":"263.0298","MEAN_ELEMENT_THEORY":"SGP4","DECAY_DATE":null,"LAUNCH_DATE":"2021-04-07","FILE":"3933889","EPOCH":"2023-06-15T17:09:56.881152","NORAD_CAT_ID":"48098","MEAN_MOTION_DDOT":"0.0000000000000","RCS_SIZE":"LARGE","COUNTRY_CODE":"US","REF_FRAME":"TEME","TIME_SYSTEM":"UTC","TLE_LINE1":"1 48098U 21027G   23166.71524168  .00016481  00000-0  11223-2 0  9994","REV_AT_EPOCH":"12179","PERIAPSIS":"546.418","ARG_OF_PERICENTER":"97.0814","ELEMENT_SET_NO":"999","CLASSIFICATION_TYPE":"U","ECCENTRICITY":"0.00010870","OBJECT_NAME":"STARLINK-2421","OBJECT_ID":"2021-027G","GP_ID":"233993874","PERIOD":"95.591","INCLINATION":"53.0544","MEAN_MOTION_DOT":"0.00016481","EPHEMERIS_TYPE":"0","TLE_LINE2":"2 48098  53.0544 321.7021 0001087  97.0814 263.0298 15.06413978121797","MEAN_MOTION":"15.06413978","RA_OF_ASC_NODE":"321.7021","BSTAR":"0.00112230000000","OBJECT_TYPE":"PAYLOAD","SEMIMAJOR_AXIS":"6925.306","APOAPSIS":"547.923","CENTER_NAME":"EARTH","SITE":"AFETR"},{"FILE":"3934071","EPOCH":"2023-06-15T18:28:13.974816","DECAY_DATE":null,"LAUNCH_DATE":"2021-04-07","MEAN_ANOMALY":"259.5356","MEAN_ELEMENT_THEORY":"SGP4","COUNTRY_CODE":"US","RCS_SIZE":"LARGE","MEAN_MOTION_DDOT":"0.0000000000000","NORAD_CAT_ID":"48099","TLE_LINE1":"1 48099U 21027H   23166.76960619  .00017222  00000-0  11717-2 0  9997","TIME_SYSTEM":"UTC","REF_FRAME":"TEME","ELEMENT_SET_NO":"999","ARG_OF_PERICENTER":"100.5765","PERIAPSIS":"546.349","REV_AT_EPOCH":"12200","OBJECT_NAME":"STARLINK-2428","ECCENTRICITY":"0.00011710","CLASSIFICATION_TYPE":"U","MEAN_MOTION_DOT":"0.00017222","INCLINATION":"53.0552","PERIOD":"95.591","GP_ID":"234018839","OBJECT_ID":"2021-027H","SEMIMAJOR_AXIS":"6925.295","OBJECT_TYPE":"PAYLOAD","BSTAR":"0.00117170000000","RA_OF_ASC_NODE":"331.4535","MEAN_MOTION":"15.06417443","EPHEMERIS_TYPE":"0","TLE_LINE2":"2 48099  53.0552 331.4535 0001171 100.5765 259.5356 15.06417443122005","SITE":"AFETR","CENTER_NAME":"EARTH","APOAPSIS":"547.971"},{"CENTER_NAME":"EARTH","APOAPSIS":"548.021","SITE":"AFETR","EPHEMERIS_TYPE":"0","TLE_LINE2":"2 48100  53.0537 311.3325 0001261  83.0720 277.0412 15.06421330122290","MEAN_MOTION":"15.06421330","RA_OF_ASC_NODE":"311.3325","OBJECT_TYPE":"PAYLOAD","BSTAR":"0.00114020000000","SEMIMAJOR_AXIS":"6925.283","OBJECT_ID":"2021-027J","GP_ID":"234019588","PERIOD":"95.591","INCLINATION":"53.0537","MEAN_MOTION_DOT":"0.00016752","CLASSIFICATION_TYPE":"U","ECCENTRICITY":"0.00012610","OBJECT_NAME":"STARLINK-2430","REV_AT_EPOCH":"12229","PERIAPSIS":"546.275","ARG_OF_PERICENTER":"83.0720","ELEMENT_SET_NO":"999","REF_FRAME":"TEME","TIME_SYSTEM":"UTC","TLE_LINE1":"1 48100U 21027J   23166.79725535  .00016752  00000-0  11402-2 0  9997","NORAD_CAT_ID":"48100","RCS_SIZE":"LARGE","MEAN_MOTION_DDOT":"0.0000000000000","COUNTRY_CODE":"US","MEAN_ELEMENT_THEORY":"SGP4","MEAN_ANOMALY":"277.0412","LAUNCH_DATE":"2021-04-07","DECAY_DATE":null,"EPOCH":"2023-06-15T19:08:02.862240","FILE":"3934071"}];
